0 PAYLOAD C
1 39210U 13037C   13282.18068302  .00000220  00000-0  25128-4 0   226
2 39210 097.6938 298.5715 0034515 127.6562 232.7808 14.95015113 12062
0 PAYLOAD C
1 39210U 13037C   13282.51533571  .00000407  00000-0  42026-4 0   232
2 39210 097.6939 298.8999 0034548 126.5136 233.9286 14.95016225 12115
0 PAYLOAD C
1 39210U 13037C   13282.84998892  .00000529  00000-0  53111-4 0   242
2 39210 097.6942 299.2283 0034689 125.6898 234.7619 14.95017095 12161
0 PAYLOAD C
1 39210U 13037C   13283.18464037  .00000618  00000-0  61162-4 0   254
2 39210 097.6940 299.5567 0034704 124.5993 235.8507 14.95017829 12218
0 PAYLOAD C
1 39210U 13037C   13283.38543198  .00000709  00000-0  69319-4 0   266
2 39210 097.6941 299.7537 0034704 123.8952 236.5588 14.95018502 12244
0 PAYLOAD C
1 39210U 13037C   13283.78701457  .00000817  00000-0  79056-4 0   263
2 39210 097.6943 300.1477 0034806 122.7193 237.7414 14.95019662 12300
0 PAYLOAD C
1 39210U 13037C   13284.12166629  .00001001  00000-0  95674-4 0   279
2 39210 097.6943 300.4761 0034799 121.5895 238.8749 14.95020985 12354
0 PAYLOAD C
1 39210U 13037C   13284.45631760  .00001169  00000-0  11090-3 0   283
2 39210 097.6947 300.8044 0034808 120.5163 239.9520 14.95022455 12403
0 PAYLOAD C
1 39210U 13037C   13285.46027247  .00000932  00000-0  89488-4 0   312
2 39210 097.6947 301.7892 0034865 117.2353 243.2432 14.95023360 12553
0 PAYLOAD C
1 39210U 13037C   13285.66106321  .00000882  00000-0  84947-4 0   325
2 39210 097.6950 301.9863 0034893 116.5307 243.9486 14.95023460 12589
0 PAYLOAD C
1 39210U 13037C   13285.86185414  .00000835  00000-0  80669-4 0   333
2 39210 097.6946 302.1832 0034879 115.9406 244.5413 14.95023588 12612
0 PAYLOAD C
1 39210U 13037C   13286.19650477  .00000887  00000-0  85425-4 0   349
2 39210 097.6947 302.5116 0034879 114.8358 245.6497 14.95024608 12669
0 PAYLOAD C
1 39210U 13037C   13286.46422528  .00000945  00000-0  90607-4 0   357
2 39210 097.6948 302.7742 0034893 113.8746 246.6138 14.95025460 12708
0 PAYLOAD C
1 39210U 13037C   13286.66501564  .00000985  00000-0  94219-4 0   365
2 39210 097.6954 302.9715 0034928 113.0534 247.4364 14.95026032 12732
0 PAYLOAD C
1 39210U 13037C   13286.79887606  .00000944  00000-0  90557-4 0   370
2 39210 097.6951 303.1028 0034895 112.7254 247.7655 14.95026003 12753
0 PAYLOAD C
1 39210U 13037C   13287.13352620  .00001095  00000-0  10418-3 0   388
2 39210 097.6951 303.4311 0034988 111.6382 248.8597 14.95027703 12805
0 PAYLOAD C
1 39210U 13037C   13287.46817565  .00001146  00000-0  10878-3 0   396
2 39210 097.6956 303.7596 0035024 110.5079 249.9917 14.95028836 12852
0 PAYLOAD C
1 39210U 13037C   13287.80282533  .00001109  00000-0  10540-3 0   402
2 39210 097.6956 304.0880 0035036 109.4060 251.0949 14.95029415 12901
0 PAYLOAD C
1 39210U 13037C   13288.07054448  .00001226  00000-0  11599-3 0   410
2 39210 097.6959 304.3506 0035052 108.4966 252.0073 14.95030834 12944
0 PAYLOAD C
1 39210U 13037C   13288.40519334  .00001255  00000-0  11856-3 0   426
2 39210 097.6957 304.6789 0035053 107.4581 253.0486 14.95031974 12991
0 PAYLOAD C
1 39210U 13037C   13288.73984202  .00001263  00000-0  11928-3 0   432
2 39210 097.6957 305.0073 0035082 106.3452 254.1626 14.95032925 13041
0 PAYLOAD C
1 39210U 13037C   13289.00756001  .00001497  00000-0  14042-3 0   447
2 39210 097.6957 305.2696 0035201 105.4814 255.0297 14.95035123 13080
0 PAYLOAD C
1 39210U 13037C   13289.14141935  .00001502  00000-0  14089-3 0   455
2 39210 097.6954 305.4009 0035165 105.1073 255.4052 14.95035572 13104
0 PAYLOAD C
1 39210U 13037C   13289.47606731  .00001540  00000-0  14434-3 0   468
2 39210 097.6957 305.7294 0035162 103.9891 256.5258 14.95036867 13150
0 PAYLOAD C
1 39210U 13037C   13289.81071529  .00001586  00000-0  14848-3 0   477
2 39210 097.6956 306.0577 0035264 102.9963 257.5221 14.95038074 13208
0 PAYLOAD C
1 39210U 13037C   13290.14536199  .00001681  00000-0  15701-3 0   480
2 39210 097.6956 306.3860 0035312 101.9325 258.5857 14.95039695 13252
0 PAYLOAD C
1 39210U 13037C   13290.34615030  .00001658  00000-0  15496-3 0   490
2 39210 097.6959 306.5833 0035364 101.1667 259.3517 14.95040262 13282
0 PAYLOAD C
1 39210U 13037C   13290.68079726  .00001672  00000-0  15621-3 0   501
2 39210 097.6955 306.9114 0035328 100.1526 260.3680 14.95041484 13333
0 PAYLOAD C
1 39210U 13037C   13290.81465600  .00001626  00000-0  15199-3 0   516
2 39210 097.6955 307.0427 0035347 099.7211 260.7987 14.95041617 13351
0 PAYLOAD C
1 39210U 13037C   13291.14930273  .00001639  00000-0  15323-3 0   520
2 39210 097.6955 307.3714 0035377 098.6096 261.9119 14.95042772 13404
0 PAYLOAD C
1 39210U 13037C   13291.41702014  .00001614  00000-0  15090-3 0   535
2 39210 097.6957 307.6342 0035390 097.6264 262.8966 14.95043516 13448
0 PAYLOAD C
1 39210U 13037C   13291.75166646  .00001431  00000-0  13439-3 0   540
2 39210 097.6953 307.9622 0035292 096.6899 263.8291 14.95043371 13498
0 PAYLOAD C
1 39210U 13037C   13292.08631338  .00001404  00000-0  13195-3 0   552
2 39210 097.6952 308.2906 0035301 095.6060 264.9187 14.95044328 13541
0 PAYLOAD C
1 39210U 13037C   13292.42095965  .00001308  00000-0  12331-3 0   565
2 39210 097.6951 308.6192 0035305 094.5589 265.9662 14.95044728 13597
0 PAYLOAD C
1 39210U 13037C   13292.75560563  .00001168  00000-0  11074-3 0   570
2 39210 097.6950 308.9474 0035260 093.4682 267.0524 14.95044606 13645
0 PAYLOAD C
1 39210U 13037C   13293.15718166  .00001000  00000-0  95548-4 0   584
2 39210 097.6947 309.3416 0035271 092.1545 268.3691 14.95044671 13706
0 PAYLOAD C
1 39210U 13037C   13293.49182811  .00000904  00000-0  86848-4 0   599
2 39210 097.6946 309.6698 0035238 091.0688 269.4560 14.95044778 13759
0 PAYLOAD C
1 39210U 13037C   13293.82647434  .00000784  00000-0  76034-4 0   607
2 39210 097.6946 309.9981 0035217 090.0578 270.4649 14.95044522 13804
0 PAYLOAD C
1 39210U 13037C   13294.16112106  .00000596  00000-0  59062-4 0   612
2 39210 097.6940 310.3268 0035278 088.9081 271.6165 14.95044116 13854
0 PAYLOAD C
1 39210U 13037C   13294.49576724  .00000540  00000-0  53982-4 0   623
2 39210 097.6940 310.6551 0035218 087.7809 272.7434 14.95044191 13901
0 PAYLOAD C
1 39210U 13037C   13294.83041354  .00000333  00000-0  35299-4 0   639
2 39210 097.6938 310.9836 0035189 086.6920 273.8297 14.95043382 13951
0 PAYLOAD C
1 39210U 13037C   13295.16505996  .00000325  00000-0  34595-4 0   643
2 39210 097.6935 311.3118 0035156 085.6295 274.8948 14.95043675 14000
0 PAYLOAD C
1 39210U 13037C   13295.49970571  .00000320  00000-0  34162-4 0   650
2 39210 097.6937 311.6402 0035118 084.5649 275.9570 14.95043791 14057
0 PAYLOAD C
1 39210U 13037C   13295.83435223  .00000140  00000-0  17927-4 0   669
2 39210 097.6932 311.9683 0035101 083.5700 276.9510 14.95043032 14104
0 PAYLOAD C
1 39210U 13037C   13296.16899810  .00000118  00000-0  15911-4 0   679
2 39210 097.6930 312.2965 0035085 082.4830 278.0373 14.95043173 14153
